KUIPER-00572            
1 69272U 26118F   26175.93749100  .00037149  00000+0  10092-2 0  9995
2 69272  51.8646  15.8687 0006310 186.7298 173.3604 15.37197868  5176
KUIPER-00581            
1 69273U 26118G   26175.94327700  .00013383  00000+0  37590-3 0  9992
2 69273  51.8672  15.9025 0008523 204.2905 155.7680 15.36815566  5261
KUIPER-00584            
1 69274U 26118H   26176.16667823 -.00714211  00000+0 -28373-1 0  9998
2 69274  51.8660  15.1878 0011817 225.1239  93.9213 15.27381127  3803
KUIPER-00587            
1 69275U 26118J   26175.94266925  .00033237  00000+0  91749-3 0  9991
2 69275  51.8609  15.8938 0007435 202.1578 157.9088 15.36748890  5170
KUIPER-00590            
1 69276U 26118K   26175.92236808  .00042597  00000+0  11211-2 0  9991
2 69276  51.8674  15.7730 0003957 192.7379 167.3509 15.38125570  5179
KUIPER-00592            
1 69277U 26118L   26176.04887611  .00018083  00000+0  48094-3 0  9993
2 69277  51.8705  15.1223 0003187 162.8051 197.3045 15.38285911  5192
KUIPER-00593            
1 69278U 26118M   26175.98484506  .00039459  00000+0  10354-2 0  9999
2 69278  51.8727  15.4434 0003540 188.1286 171.9644 15.38254955  5241
KUIPER-00594            
1 69279U 26118N   26175.97391529  .00033363  00000+0  86466-3 0  9997
2 69279  51.8720  15.3711 0000919  66.0169 294.0914 15.38719165  5182
KUIPER-00595            
1 69280U 26118P   26175.26219965  .00033489  00000+0  86888-3 0  9991
2 69280  51.8702  18.8508 0000810 236.3353 123.7558 15.38683814  5108
KUIPER-00596            
1 69281U 26118Q   26175.96755753  .00036831  00000+0  11220-2 0  9990
2 69281  51.8635  16.0542 0010681 213.2209 146.8107 15.33574750  5179
KUIPER-00597            
1 69282U 26118R   26175.28559157  .00023636  00000+0  64704-3 0  9991
2 69282  51.8671  18.9967 0007145 204.4890 155.5758 15.37196141  5077
KUIPER-00599            
1 69283U 26118S   26175.93138478  .00011427  00000+0  31653-3 0  9995
2 69283  51.8703  15.8310 0005580 194.1763 165.9068 15.37427867  5179
KUIPER-00600            
1 69284U 26118T   26175.29145660  .00029367  00000+0  80977-3 0  9991
2 69284  51.8648  19.0324 0008726 202.8728 157.1871 15.36836441  5077
KUIPER-00601            
1 69285U 26118U   26175.27654458  .00040202  00000+0  10709-2 0  9996
2 69285  51.8709  18.9449 0005040 196.3563 163.7262 15.37775561  5075
KUIPER-00602            
1 69286U 26118V   26175.26801913  .00022869  00000+0  60400-3 0  9999
2 69286  51.8687  18.8891 0002460 156.3924 203.7176 15.38345039  5074
KUIPER-00603            
1 69287U 26118W   26175.92787308  .00014645  00000+0  39831-3 0  9991
2 69287  51.8681  15.8070 0005053 189.9403 170.1484 15.37756058  5176
KUIPER-00605            
1 69288U 26118X   26175.93626339  .00035593  00000+0  96604-3 0  9995
2 69288  51.8650  15.8575 0006989 191.1584 168.9248 15.37243519  5173
KUIPER-00606            
1 69289U 26118Y   26175.98970274  .00035720  00000+0  94974-3 0  9991
2 69289  51.8709  15.4748 0004490 185.1991 174.8950 15.37890777  5188
KUIPER-00607            
1 69290U 26118Z   26175.92975859  .00014194  00000+0  38881-3 0  9998
2 69290  51.8692  15.8209 0005704 165.6055 194.5095 15.37559725  5173
KUIPER-00608            
1 69291U 26118AA  26174.98146506  .00032058  00000+0  93849-3 0  9997
2 69291  51.8618  20.6959 0007983 205.0787 154.9812 15.34924644  5024
KUIPER-00610            
1 69292U 26118AB  26175.98041612  .00035604  00000+0  93178-3 0  9996
2 69292  51.8719  15.4132 0001785 187.5648 172.5313 15.38387608  5182
KUIPER-00613            
1 69293U 26118AC  26175.96653344  .00036599  00000+0  10795-2 0  9993
2 69293  51.8676  16.0383 0011924 220.1754 139.8351 15.34587029  5170
KUIPER-00618            
1 69294U 26118AD  26176.16910899 -.00273611  00000+0 -73220-2 0  9990
2 69294  51.8688  14.4270 0002957 184.7469 175.3491 15.38553530  5214
KUIPER-00620            
1 69295U 26118AE  26175.97958432  .00050051  00000+0  13064-2 0  9993
2 69295  51.8712  15.4089 0001984 153.8513 206.2574 15.38313264  5188
STARLINK-37501          
1 69296U 26119A   26175.96643367 -.00844986  00000+0 -17932-1 0  9999
2 69296  97.2843 201.8690 0001857 123.1724 236.9705 15.47668422  5242
STARLINK-37496          
1 69297U 26119B   26176.16667823  .00012732  00000+0  23554-3 0  9999
2 69297  97.2855 202.0788 0001056  76.5989 333.4096 15.49171650  5163
STARLINK-37519          
1 69298U 26119C   26175.25286139 -.00239201  00000+0 -46646-2 0  9996
2 69298  97.2859 201.1563 0000366 281.4999  78.6211 15.48360987  5136
STARLINK-37455          
1 69299U 26119D   26176.16667823 -.00013028  00000+0 -23834-3 0  9993
2 69299  97.2858 201.9888 0001340  87.2998 114.8254 15.49182088  5166
STARLINK-37456          
1 69300U 26119E   26176.03029549  .00069687  00000+0  12692-2 0  9998
2 69300  97.2866 201.9356 0000466  89.1293 271.0012 15.49244706  5259
STARLINK-37630          
1 69301U 26119F   26176.03397525  .00058315  00000+0  10644-2 0  9992
2 69301  97.2845 201.7758 0000692  79.1843 280.9486 15.49231221  5243
