OBJECT_NAME,OBJECT_ID,EPOCH,MEAN_MOTION,ECCENTRICITY,INCLINATION,RA_OF_ASC_NODE,ARG_OF_PERICENTER,MEAN_ANOMALY,EPHEMERIS_TYPE,CLASSIFICATION_TYPE,NORAD_CAT_ID,ELEMENT_SET_NO,REV_AT_EPOCH,BSTAR,MEAN_MOTION_DOT,MEAN_MOTION_DDOT
KUIPER-00572,2026-118F,2026-06-24T22:29:59.222400,15.37197868,.000631,51.8646,15.8687,186.7298,173.3604,0,U,69272,999,517,.10092E-2,.37149E-3,0
KUIPER-00581,2026-118G,2026-06-24T22:38:19.132800,15.36815566,.0008523,51.8672,15.9025,204.2905,155.7680,0,U,69273,999,526,.3759E-3,.13383E-3,0
KUIPER-00584,2026-118H,2026-06-25T04:00:00.999072,15.27381127,.0011817,51.8660,15.1878,225.1239,93.9213,0,U,69274,999,380,-.28373E-1,-.714211E-2,0
KUIPER-00587,2026-118J,2026-06-24T22:37:26.623200,15.36748890,.0007435,51.8609,15.8938,202.1578,157.9088,0,U,69275,999,517,.91749E-3,.33237E-3,0
KUIPER-00590,2026-118K,2026-06-24T22:08:12.602112,15.38125570,.0003957,51.8674,15.7730,192.7379,167.3509,0,U,69276,999,517,.11211E-2,.42597E-3,0
KUIPER-00592,2026-118L,2026-06-25T01:10:22.895904,15.38285911,.0003187,51.8705,15.1223,162.8051,197.3045,0,U,69277,999,519,.48094E-3,.18083E-3,0
KUIPER-00593,2026-118M,2026-06-24T23:38:10.613184,15.38254955,.000354,51.8727,15.4434,188.1286,171.9644,0,U,69278,999,524,.10354E-2,.39459E-3,0
KUIPER-00594,2026-118N,2026-06-24T23:22:26.281056,15.38719165,.0000919,51.8720,15.3711,66.0169,294.0914,0,U,69279,999,518,.86466E-3,.33363E-3,0
KUIPER-00595,2026-118P,2026-06-24T06:17:34.049760,15.38683814,.00008101,51.8702,18.8508,236.3353,123.7558,0,U,69280,999,510,.86888189E-3,.33489E-3,0
KUIPER-00596,2026-118Q,2026-06-24T23:13:16.970592,15.33574750,.0010681,51.8635,16.0542,213.2209,146.8107,0,U,69281,999,517,.1122E-2,.36831E-3,0
KUIPER-00597,2026-118R,2026-06-24T06:51:15.111648,15.37196141,.00071452,51.8671,18.9967,204.4890,155.5758,0,U,69282,999,507,.64704038E-3,.23636E-3,0
KUIPER-00599,2026-118S,2026-06-24T22:21:11.644992,15.37427867,.000558,51.8703,15.8310,194.1763,165.9068,0,U,69283,999,517,.31653E-3,.11427E-3,0
KUIPER-00600,2026-118T,2026-06-24T06:59:41.850240,15.36836441,.00087267,51.8648,19.0324,202.8728,157.1871,0,U,69284,999,507,.80976877E-3,.29367E-3,0
KUIPER-00601,2026-118U,2026-06-24T06:38:13.451712,15.37775561,.00050404,51.8709,18.9449,196.3563,163.7262,0,U,69285,999,507,.10709069E-2,.40202E-3,0
KUIPER-00602,2026-118V,2026-06-24T06:25:56.852832,15.38345039,.00024601,51.8687,18.8891,156.3924,203.7176,0,U,69286,999,507,.60399505E-3,.22869E-3,0
KUIPER-00603,2026-118W,2026-06-24T22:16:08.234112,15.37756058,.0005053,51.8681,15.8070,189.9403,170.1484,0,U,69287,999,517,.39831E-3,.14645E-3,0
KUIPER-00605,2026-118X,2026-06-24T22:28:13.156896,15.37243519,.0006989,51.8650,15.8575,191.1584,168.9248,0,U,69288,999,517,.96604E-3,.35593E-3,0
KUIPER-00606,2026-118Y,2026-06-24T23:45:10.316736,15.37890777,.000449,51.8709,15.4748,185.1991,174.8950,0,U,69289,999,518,.94974E-3,.3572E-3,0
KUIPER-00607,2026-118Z,2026-06-24T22:18:51.142176,15.37559725,.0005704,51.8692,15.8209,165.6055,194.5095,0,U,69290,999,517,.38881E-3,.14194E-3,0
KUIPER-00608,2026-118AA,2026-06-23T23:33:18.581184,15.34924644,.00079831,51.8618,20.6959,205.0787,154.9812,0,U,69291,999,502,.9384871E-3,.32058E-3,0
KUIPER-00610,2026-118AB,2026-06-24T23:31:47.952768,15.38387608,.0001785,51.8719,15.4132,187.5648,172.5313,0,U,69292,999,518,.93178E-3,.35604E-3,0
KUIPER-00613,2026-118AC,2026-06-24T23:11:48.489216,15.34587029,.0011924,51.8676,16.0383,220.1754,139.8351,0,U,69293,999,517,.10795E-2,.36599E-3,0
KUIPER-00618,2026-118AD,2026-06-25T04:03:31.016736,15.38553530,.0002957,51.8688,14.4270,184.7469,175.3491,0,U,69294,999,521,-.7322E-2,-.273611E-2,0
KUIPER-00620,2026-118AE,2026-06-24T23:30:36.085248,15.38313264,.0001984,51.8712,15.4089,153.8513,206.2574,0,U,69295,999,518,.13064E-2,.50051E-3,0
STARLINK-37501,2026-119A,2026-06-24T23:11:39.869088,15.47668422,.0001857,97.2843,201.8690,123.1724,236.9705,0,U,69296,999,524,-.17932E-1,-.844986E-2,0
STARLINK-37496,2026-119B,2026-06-25T04:00:00.999072,15.49171650,.0001056,97.2855,202.0788,76.5989,333.4096,0,U,69297,999,516,.23554E-3,.12732E-3,0
STARLINK-37519,2026-119C,2026-06-24T06:04:07.224096,15.48360987,.00003665,97.2859,201.1563,281.4999,78.6211,0,U,69298,999,513,-.46646428E-2,-.239201E-2,0
STARLINK-37455,2026-119D,2026-06-25T04:00:00.999072,15.49182088,.000134,97.2858,201.9888,87.2998,114.8254,0,U,69299,999,516,-.23834E-3,-.13028E-3,0
STARLINK-37456,2026-119E,2026-06-25T00:43:37.530336,15.49244706,.0000466,97.2866,201.9356,89.1293,271.0012,0,U,69300,999,525,.12692E-2,.69687E-3,0
STARLINK-37630,2026-119F,2026-06-25T00:48:55.461600,15.49231221,.0000692,97.2845,201.7758,79.1843,280.9486,0,U,69301,999,524,.10644E-2,.58315E-3,0
